STARLINK-1434           
1 45712U 20035BH  26068.24137979  .00054112  00000+0  20295-2 0  9995
2 45712  53.0547  22.1128 0005343  88.0400 272.1210 15.26724568319325
STARLINK-34135          
1 63964U 25099N   26068.33890482  .00023699  00000+0  86768-3 0  9998
2 63964  43.0012 178.1170 0002095 282.0487  78.0130 15.27590381 47283
